[{"OBJECT_NAME":"STARLINK-31883","OBJECT_ID":"2024-111E","EPOCH":"2026-03-09T10:56:24.691776","MEAN_MOTION":15.30190449,"ECCENTRICITY":0.00012212,"INCLINATION":53.1608,"RA_OF_ASC_NODE":77.0016,"ARG_OF_PERICENTER":88.897,"MEAN_ANOMALY":271.217,"EPHEMERIS_TYPE":0,"CLASSIFICATION_TYPE":"U","NORAD_CAT_ID":60020,"ELEMENT_SET_NO":999,"REV_AT_EPOCH":9894,"BSTAR":-8.318067e-6,"MEAN_MOTION_DOT":-6.05e-6,"MEAN_MOTION_DDOT":0},{"OBJECT_NAME":"CZ-6A DEB","OBJECT_ID":"2022-151EM","EPOCH":"2026-03-09T21:12:10.844640","MEAN_MOTION":15.1479521,"ECCENTRICITY":0.00732342,"INCLINATION":98.809,"RA_OF_ASC_NODE":212.6624,"ARG_OF_PERICENTER":10.5605,"MEAN_ANOMALY":349.714,"EPHEMERIS_TYPE":0,"CLASSIFICATION_TYPE":"U","NORAD_CAT_ID":54413,"ELEMENT_SET_NO":999,"REV_AT_EPOCH":17915,"BSTAR":0.0020661814,"MEAN_MOTION_DOT":0.00041137,"MEAN_MOTION_DDOT":0}]
